CCSDS_OMM_VERS = 2.0
CREATION_DATE  = 
ORIGINATOR     = 

OBJECT_NAME    = DELTA 2 R/B(1)
OBJECT_ID      = 1990-008B
CENTER_NAME    = EARTH
REF_FRAME      = TEME
TIME_SYSTEM    = UTC
MEAN_ELEMENT_THEORY = SGP/SGP4

EPOCH          = 2026-02-06T01:57:53.466912
MEAN_MOTION    = 15.51612423
ECCENTRICITY   = .00958515
INCLINATION    = 35.6065
RA_OF_ASC_NODE = 21.5888
ARG_OF_PERICENTER = 324.0484
MEAN_ANOMALY   = 35.3829

EPHEMERIS_TYPE = 0
CLASSIFICATION_TYPE = U
NORAD_CAT_ID   = 20453
ELEMENT_SET_NO = 999
REV_AT_EPOCH   = 92121
BSTAR          = .10278644E-2
MEAN_MOTION_DOT = .77268E-3
MEAN_MOTION_DDOT = 0

CCSDS_OMM_VERS = 2.0
CREATION_DATE  = 
ORIGINATOR     = 

OBJECT_NAME    = COSMOS 2058
OBJECT_ID      = 1990-010A
CENTER_NAME    = EARTH
REF_FRAME      = TEME
TIME_SYSTEM    = UTC
MEAN_ELEMENT_THEORY = SGP/SGP4

EPOCH          = 2026-02-06T14:13:56.773344
MEAN_MOTION    = 15.11034029
ECCENTRICITY   = .0012073
INCLINATION    = 82.4634
RA_OF_ASC_NODE = 78.0623
ARG_OF_PERICENTER = 83.6310
MEAN_ANOMALY   = 276.6295

EPHEMERIS_TYPE = 0
CLASSIFICATION_TYPE = U
NORAD_CAT_ID   = 20465
ELEMENT_SET_NO = 999
REV_AT_EPOCH   = 93754
BSTAR          = .30569E-3
MEAN_MOTION_DOT = .5145E-4
MEAN_MOTION_DDOT = 0

CCSDS_OMM_VERS = 2.0
CREATION_DATE  = 
ORIGINATOR     = 

OBJECT_NAME    = SL-14 R/B
OBJECT_ID      = 1990-010B
CENTER_NAME    = EARTH
REF_FRAME      = TEME
TIME_SYSTEM    = UTC
MEAN_ELEMENT_THEORY = SGP/SGP4

EPOCH          = 2026-02-06T19:06:23.623200
MEAN_MOTION    = 14.83541772
ECCENTRICITY   = .0020946
INCLINATION    = 82.5031
RA_OF_ASC_NODE = 296.4083
ARG_OF_PERICENTER = 44.8452
MEAN_ANOMALY   = 315.4451

EPHEMERIS_TYPE = 0
CLASSIFICATION_TYPE = U
NORAD_CAT_ID   = 20466
ELEMENT_SET_NO = 999
REV_AT_EPOCH   = 92390
BSTAR          = .75621361E-4
MEAN_MOTION_DOT = .649E-5
MEAN_MOTION_DDOT = 0

CCSDS_OMM_VERS = 2.0
CREATION_DATE  = 
ORIGINATOR     = 

OBJECT_NAME    = SL-14 R/B
OBJECT_ID      = 1990-018B
CENTER_NAME    = EARTH
REF_FRAME      = TEME
TIME_SYSTEM    = UTC
MEAN_ELEMENT_THEORY = SGP/SGP4

EPOCH          = 2026-02-06T22:03:32.533920
MEAN_MOTION    = 14.82113022
ECCENTRICITY   = .00160751
INCLINATION    = 82.5184
RA_OF_ASC_NODE = 251.8573
ARG_OF_PERICENTER = 188.4405
MEAN_ANOMALY   = 171.6542

EPHEMERIS_TYPE = 0
CLASSIFICATION_TYPE = U
NORAD_CAT_ID   = 20511
ELEMENT_SET_NO = 999
REV_AT_EPOCH   = 91802
BSTAR          = .6492352E-4
MEAN_MOTION_DOT = .541E-5
MEAN_MOTION_DDOT = 0

CCSDS_OMM_VERS = 2.0
CREATION_DATE  = 
ORIGINATOR     = 

OBJECT_NAME    = HST
OBJECT_ID      = 1990-037B
CENTER_NAME    = EARTH
REF_FRAME      = TEME
TIME_SYSTEM    = UTC
MEAN_ELEMENT_THEORY = SGP/SGP4

EPOCH          = 2026-02-06T19:31:08.677632
MEAN_MOTION    = 15.28986456
ECCENTRICITY   = .00018809
INCLINATION    = 28.4665
RA_OF_ASC_NODE = 250.5538
ARG_OF_PERICENTER = 124.2058
MEAN_ANOMALY   = 235.8715

EPHEMERIS_TYPE = 0
CLASSIFICATION_TYPE = U
NORAD_CAT_ID   = 20580
ELEMENT_SET_NO = 999
REV_AT_EPOCH   = 76858
BSTAR          = .29015934E-3
MEAN_MOTION_DOT = .8638E-4
MEAN_MOTION_DDOT = 0

CCSDS_OMM_VERS = 2.0
CREATION_DATE  = 
ORIGINATOR     = 

OBJECT_NAME    = SL-16 R/B
OBJECT_ID      = 1990-046B
CENTER_NAME    = EARTH
REF_FRAME      = TEME
TIME_SYSTEM    = UTC
MEAN_ELEMENT_THEORY = SGP/SGP4

EPOCH          = 2026-02-06T22:42:36.488160
MEAN_MOTION    = 14.15005478
ECCENTRICITY   = .00146043
INCLINATION    = 71.0000
RA_OF_ASC_NODE = 2.4772
ARG_OF_PERICENTER = 342.3487
MEAN_ANOMALY   = 17.7126

EPHEMERIS_TYPE = 0
CLASSIFICATION_TYPE = U
NORAD_CAT_ID   = 20625
ELEMENT_SET_NO = 999
REV_AT_EPOCH   = 84404
BSTAR          = .83219016E-4
MEAN_MOTION_DOT = .114E-5
MEAN_MOTION_DDOT = 0

CCSDS_OMM_VERS = 2.0
CREATION_DATE  = 
ORIGINATOR     = 

OBJECT_NAME    = COSMOS 2084
OBJECT_ID      = 1990-055A
CENTER_NAME    = EARTH
REF_FRAME      = TEME
TIME_SYSTEM    = UTC
MEAN_ELEMENT_THEORY = SGP/SGP4

EPOCH          = 2026-02-06T12:07:08.645952
MEAN_MOTION    = 15.05449161
ECCENTRICITY   = .0022026
INCLINATION    = 62.7897
RA_OF_ASC_NODE = 81.9221
ARG_OF_PERICENTER = 183.5474
MEAN_ANOMALY   = 176.5474

EPHEMERIS_TYPE = 0
CLASSIFICATION_TYPE = U
NORAD_CAT_ID   = 20663
ELEMENT_SET_NO = 999
REV_AT_EPOCH   = 93162
BSTAR          = .25653488E-3
MEAN_MOTION_DOT = .3519E-4
MEAN_MOTION_DDOT = 0

CCSDS_OMM_VERS = 2.0
CREATION_DATE  = 
ORIGINATOR     = 

OBJECT_NAME    = SL-6 R/B(2)
OBJECT_ID      = 1990-055D
CENTER_NAME    = EARTH
REF_FRAME      = TEME
TIME_SYSTEM    = UTC
MEAN_ELEMENT_THEORY = SGP/SGP4

EPOCH          = 2026-02-06T23:27:41.081184
MEAN_MOTION    = 15.03430827
ECCENTRICITY   = .0020166
INCLINATION    = 62.7852
RA_OF_ASC_NODE = 358.2778
ARG_OF_PERICENTER = 338.1614
MEAN_ANOMALY   = 21.8624

EPHEMERIS_TYPE = 0
CLASSIFICATION_TYPE = U
NORAD_CAT_ID   = 20666
ELEMENT_SET_NO = 999
REV_AT_EPOCH   = 93357
BSTAR          = .28344933E-3
MEAN_MOTION_DOT = .3695E-4
MEAN_MOTION_DDOT = 0

CCSDS_OMM_VERS = 2.0
CREATION_DATE  = 
ORIGINATOR     = 

OBJECT_NAME    = SL-8 R/B
OBJECT_ID      = 1990-078B
CENTER_NAME    = EARTH
REF_FRAME      = TEME
TIME_SYSTEM    = UTC
MEAN_ELEMENT_THEORY = SGP/SGP4

EPOCH          = 2026-02-06T17:18:00.061920
MEAN_MOTION    = 14.88038366
ECCENTRICITY   = .03672398
INCLINATION    = 82.9020
RA_OF_ASC_NODE = 279.1383
ARG_OF_PERICENTER = 117.7522
MEAN_ANOMALY   = 246.1449

EPHEMERIS_TYPE = 0
CLASSIFICATION_TYPE = U
NORAD_CAT_ID   = 20775
ELEMENT_SET_NO = 999
REV_AT_EPOCH   = 80469
BSTAR          = .54620459E-3
MEAN_MOTION_DOT = .18509E-3
MEAN_MOTION_DDOT = 0

CCSDS_OMM_VERS = 2.0
CREATION_DATE  = 
ORIGINATOR     = 

OBJECT_NAME    = SL-8 R/B
OBJECT_ID      = 1991-006B
CENTER_NAME    = EARTH
REF_FRAME      = TEME
TIME_SYSTEM    = UTC
MEAN_ELEMENT_THEORY = SGP/SGP4

EPOCH          = 2026-02-06T23:36:31.900320
MEAN_MOTION    = 13.77491992
ECCENTRICITY   = .00235448
INCLINATION    = 82.9428
RA_OF_ASC_NODE = 192.8748
ARG_OF_PERICENTER = 119.9931
MEAN_ANOMALY   = 0.8838

EPHEMERIS_TYPE = 0
CLASSIFICATION_TYPE = U
NORAD_CAT_ID   = 21088
ELEMENT_SET_NO = 999
REV_AT_EPOCH   = 75984
BSTAR          = .10144289E-4
MEAN_MOTION_DOT = .26E-6
MEAN_MOTION_DDOT = 0

CCSDS_OMM_VERS = 2.0
CREATION_DATE  = 
ORIGINATOR     = 

OBJECT_NAME    = OKEAN-3
OBJECT_ID      = 1991-039A
CENTER_NAME    = EARTH
REF_FRAME      = TEME
TIME_SYSTEM    = UTC
MEAN_ELEMENT_THEORY = SGP/SGP4

EPOCH          = 2026-02-06T22:55:59.306592
MEAN_MOTION    = 15.04560231
ECCENTRICITY   = .00164969
INCLINATION    = 82.5182
RA_OF_ASC_NODE = 6.6087
ARG_OF_PERICENTER = 77.5893
MEAN_ANOMALY   = 282.7178

EPHEMERIS_TYPE = 0
CLASSIFICATION_TYPE = U
NORAD_CAT_ID   = 21397
ELEMENT_SET_NO = 999
REV_AT_EPOCH   = 86041
BSTAR          = .32261511E-3
MEAN_MOTION_DOT = .4563E-4
MEAN_MOTION_DDOT = 0

CCSDS_OMM_VERS = 2.0
CREATION_DATE  = 
ORIGINATOR     = 

OBJECT_NAME    = COSMOS 2151
OBJECT_ID      = 1991-042A
CENTER_NAME    = EARTH
REF_FRAME      = TEME
TIME_SYSTEM    = UTC
MEAN_ELEMENT_THEORY = SGP/SGP4

EPOCH          = 2026-02-06T20:45:28.677600
MEAN_MOTION    = 14.99985399
ECCENTRICITY   = .00131485
INCLINATION    = 82.4964
RA_OF_ASC_NODE = 113.4101
ARG_OF_PERICENTER = 157.3936
MEAN_ANOMALY   = 202.7870

EPHEMERIS_TYPE = 0
CLASSIFICATION_TYPE = U
NORAD_CAT_ID   = 21422
ELEMENT_SET_NO = 999
REV_AT_EPOCH   = 85857
BSTAR          = .20838371E-3
MEAN_MOTION_DOT = .262E-4
MEAN_MOTION_DDOT = 0

