DELTA 2 R/B(1)          
1 20453U 90008B   26037.08186883  .00077268  00000+0  10279-2 0  9991
2 20453  35.6065  21.5888 0095851 324.0484  35.3829 15.51612423921211
COSMOS 2058             
1 20465U 90010A   26037.59301821  .00005145  00000+0  30569-3 0  9994
2 20465  82.4634  78.0623 0012073  83.6310 276.6295 15.11034029937547
SL-14 R/B               
1 20466U 90010B   26037.79610675  .00000649  00000+0  75621-4 0  9990
2 20466  82.5031 296.4083 0020946  44.8452 315.4451 14.83541772923907
SL-14 R/B               
1 20511U 90018B   26037.91912655  .00000541  00000+0  64924-4 0  9991
2 20511  82.5184 251.8573 0016075 188.4405 171.6542 14.82113022918029
HST                     
1 20580U 90037B   26037.81329488  .00008638  00000+0  29016-3 0  9990
2 20580  28.4665 250.5538 0001880 124.2058 235.8715 15.28986456768584
SL-16 R/B               
1 20625U 90046B   26037.94625565  .00000114  00000+0  83219-4 0  9996
2 20625  71.0000   2.4772 0014604 342.3487  17.7126 14.15005478844042
COSMOS 2084             
1 20663U 90055A   26037.50496118  .00003519  00000+0  25653-3 0  9999
2 20663  62.7897  81.9221 0022026 183.5474 176.5474 15.05449161931626
SL-6 R/B(2)             
1 20666U 90055D   26037.97755881  .00003695  00000+0  28345-3 0  9994
2 20666  62.7852 358.2778 0020166 338.1614  21.8624 15.03430827933576
SL-8 R/B                
1 20775U 90078B   26037.72083405  .00018509  00000+0  54620-3 0  9994
2 20775  82.9020 279.1383 0367239 117.7522 246.1449 14.88038366804696
SL-8 R/B                
1 21088U 91006B   26037.98370255  .00000026  00000+0  10144-4 0  9993
2 21088  82.9428 192.8748 0023544 119.9931   0.8838 13.77491992759846
OKEAN-3                 
1 21397U 91039A   26037.95554753  .00004563  00000+0  32262-3 0  9990
2 21397  82.5182   6.6087 0016496  77.5893 282.7178 15.04560231860413
COSMOS 2151             
1 21422U 91042A   26037.86491525  .00002620  00000+0  20838-3 0  9998
2 21422  82.4964 113.4101 0013148 157.3936 202.7870 14.99985399858573
